ONEWEB-0018             
1 45434U 20020L   25164.55192673  .00000350  00000+0  95089-3 0  9991
2 45434  87.8840  94.5409 0001999  79.8980 280.2374 13.11418754254313
ONEWEB-0083             
1 45435U 20020M   25164.54172883 -.00000114  00000+0 -35744-3 0  9994
2 45435  87.8844  94.5271 0002017  77.7628 282.3725 13.11420659254368
ONEWEB-0095             
1 45436U 20020N   25164.53339311 -.00000362  00000+0 -10569-2 0  9997
2 45436  87.8843  94.5550 0002374  61.7516 298.3852 13.11416918254353
ONEWEB-0092             
1 45437U 20020P   25164.50528718  .00000100  00000+0  24672-3 0  9995
2 45437  87.8839  94.5482 0002053  71.4029 288.7322 13.11414545254465
ONEWEB-0085             
1 45438U 20020Q   25164.53478989  .00002712  00000+0  76108-2 0  9994
2 45438  87.8844  94.5533 0002076  80.3877 279.7485 13.11449298254366
ONEWEB-0096             
1 45439U 20020R   25164.54342489  .00000062  00000+0  13820-3 0  9990
2 45439  87.8839  94.5179 0001866  83.1153 277.0188 13.11418393254342
ONEWEB-0037             
1 45440U 20020S   25164.52391379 -.00000471  00000+0 -13644-2 0  9991
2 45440  87.8839  94.4844 0001996  75.9392 284.1958 13.11415103254373
ONEWEB-0042             
1 45441U 20020T   25164.53310732 -.00000650  00000+0 -18710-2 0  9995
2 45441  87.8844  94.5304 0001871  78.6482 281.4856 13.11417472254349
